*******************************************************************************
Ephemeris / WWW_USER Mon Mar 10 07:44:55 2025 Pasadena, USA      / Horizons    
*******************************************************************************
Target body name: (2013 AZ60)                     {source: JPL#49}
Center body name: Earth (399)                     {source: DE441}
Center-site name: Mauna Kea
*******************************************************************************
Start time      : A.D. 2018-Aug-27 04:51:00.0000 UT      
Stop  time      : A.D. 2018-Aug-27 15:56:00.0000 UT      
Step-size       : 1 minutes
*******************************************************************************
Target pole/equ : undefined
Target radii    : undefined                                                    
Center geodetic : 204.5278, 19.8260847, 4.21024   {E-lon(deg),Lat(deg),Alt(km)}
Center cylindric: 204.5278, 6006.35451, 2151.0229 {E-lon(deg),Dxy(km),Dz(km)}
Center pole/equ : ITRF93                          {East-longitude positive}
Center radii    : 6378.137, 6378.137, 6356.752 km {Equator_a, b, pole_c}       
Target primary  : Sun
Vis. interferer : MOON (R_eq= 1737.400) km        {source: DE441}
Rel. light bend : Sun                             {source: DE441}
Rel. lght bnd GM: 1.3271E+11 km^3/s^2                                          
Small-body perts: Yes                             {source: SB441-N16}
Atmos refraction: NO (AIRLESS)
RA format       : HMS
Time format     : CAL 
Calendar mode   : Mixed Julian/Gregorian
RTS-only print  : NO       
EOP file        : eop.250307.p250603                                           
EOP coverage    : DATA-BASED 1962-JAN-20 TO 2025-MAR-07. PREDICTS-> 2025-JUN-02
Units conversion: 1 au= 149597870.700 km, c= 299792.458 km/s, 1 day= 86400.0 s 
Table cut-offs 1: Elevation (-90.0deg=NO ),Airmass (>38.000=NO), Daylight (YES)
Table cut-offs 2: Solar elongation (  0.0,180.0=NO ),Local Hour Angle( 0.0=NO )
Table cut-offs 3: RA/DEC angular rate (     0.0=NO )                           
*******************************************************************************
Initial IAU76/J2000 heliocentric ecliptic osculating elements (au, days, deg.):
  EPOCH=  2457400.5 ! 2016-Jan-13.00 (TDB)         Residual RMS= .1326         
   EC= .9891456016948332   QR= 7.910280980491398   TP= 2456989.3208761909      
   OM= 349.2102750469422   W=  158.2320149266156   IN= 16.53862471305098       
  Equivalent ICRF heliocentric cartesian coordinates (au, au/d):
   X=-8.215502218447208E+00  Y= 1.083611838195559E+00  Z= 3.298265209415168E-01
  VX=-2.822922434188891E-03 VY=-6.008885131743716E-03 VZ=-5.184670886061429E-03
Asteroid physical parameters (km, seconds, rotational period in hours):        
   GM= n.a.                RAD= n.a.               ROTPER= 9.39                
   H= 10.3                 G= .150                 B-V= n.a.                   
                           ALBEDO= n.a.            STYP= n.a.                  
*******************************************************************************
 Date__(UT)__HR:MN     R.A._________(ICRF)_________DEC
******************************************************
$$SOE
 2018-Aug-27 13:03  m  13 28 43.867455 -21 08 06.76401
 2018-Aug-27 13:04  m  13 28 43.881153 -21 08 06.82400
 2018-Aug-27 13:05  m  13 28 43.894852 -21 08 06.88399
 2018-Aug-27 13:06  m  13 28 43.908550 -21 08 06.94400
 2018-Aug-27 13:07  m  13 28 43.922249 -21 08 07.00400
 2018-Aug-27 13:08  m  13 28 43.935948 -21 08 07.06402
 2018-Aug-27 13:09  m  13 28 43.949647 -21 08 07.12404
 2018-Aug-27 13:10  m  13 28 43.963346 -21 08 07.18406
 2018-Aug-27 13:11  m  13 28 43.977046 -21 08 07.24409
 2018-Aug-27 13:12  m  13 28 43.990745 -21 08 07.30413
 2018-Aug-27 13:13  m  13 28 44.004445 -21 08 07.36417
 2018-Aug-27 13:14  m  13 28 44.018145 -21 08 07.42421
 2018-Aug-27 13:15  m  13 28 44.031845 -21 08 07.48427
 2018-Aug-27 13:16  m  13 28 44.045545 -21 08 07.54432
 2018-Aug-27 13:17  m  13 28 44.059246 -21 08 07.60439
 2018-Aug-27 13:18  m  13 28 44.072946 -21 08 07.66446
 2018-Aug-27 13:19  m  13 28 44.086647 -21 08 07.72453
 2018-Aug-27 13:20  m  13 28 44.100348 -21 08 07.78461
 2018-Aug-27 13:21  m  13 28 44.114049 -21 08 07.84470
 2018-Aug-27 13:22  m  13 28 44.127750 -21 08 07.90479
 2018-Aug-27 13:23  m  13 28 44.141451 -21 08 07.96489
 2018-Aug-27 13:24  m  13 28 44.155153 -21 08 08.02499
 2018-Aug-27 13:25  m  13 28 44.168854 -21 08 08.08510
 2018-Aug-27 13:26  m  13 28 44.182556 -21 08 08.14522
 2018-Aug-27 13:27  m  13 28 44.196257 -21 08 08.20534
 2018-Aug-27 13:28  m  13 28 44.209959 -21 08 08.26546
 2018-Aug-27 13:29  m  13 28 44.223661 -21 08 08.32560
 2018-Aug-27 13:30  m  13 28 44.237363 -21 08 08.38573
 2018-Aug-27 13:31  m  13 28 44.251065 -21 08 08.44588
 2018-Aug-27 13:32  m  13 28 44.264768 -21 08 08.50602
 2018-Aug-27 13:33  m  13 28 44.278470 -21 08 08.56618
 2018-Aug-27 13:34  m  13 28 44.292172 -21 08 08.62634
 2018-Aug-27 13:35  m  13 28 44.305875 -21 08 08.68650
 2018-Aug-27 13:36  m  13 28 44.319577 -21 08 08.74668
 2018-Aug-27 13:37  m  13 28 44.333280 -21 08 08.80685
 2018-Aug-27 13:38  m  13 28 44.346983 -21 08 08.86704
 2018-Aug-27 13:39  m  13 28 44.360685 -21 08 08.92722
 2018-Aug-27 13:40  m  13 28 44.374388 -21 08 08.98742
 2018-Aug-27 13:41  m  13 28 44.388091 -21 08 09.04762
 2018-Aug-27 13:42  m  13 28 44.401794 -21 08 09.10782
 2018-Aug-27 13:43  m  13 28 44.415497 -21 08 09.16803
 2018-Aug-27 13:44  m  13 28 44.429200 -21 08 09.22825
 2018-Aug-27 13:45  m  13 28 44.442903 -21 08 09.28847
 2018-Aug-27 13:46  m  13 28 44.456606 -21 08 09.34870
 2018-Aug-27 13:47  m  13 28 44.470309 -21 08 09.40894
 2018-Aug-27 13:48  m  13 28 44.484012 -21 08 09.46917
 2018-Aug-27 13:49  m  13 28 44.497715 -21 08 09.52942
 2018-Aug-27 13:50  m  13 28 44.511418 -21 08 09.58967
 2018-Aug-27 13:51  m  13 28 44.525121 -21 08 09.64993
 2018-Aug-27 13:52  m  13 28 44.538824 -21 08 09.71019
 2018-Aug-27 13:53  m  13 28 44.552527 -21 08 09.77046
 2018-Aug-27 13:54  m  13 28 44.566230 -21 08 09.83073
 2018-Aug-27 13:55  m  13 28 44.579934 -21 08 09.89101
 2018-Aug-27 13:56  m  13 28 44.593637 -21 08 09.95129
 2018-Aug-27 13:57  m  13 28 44.607340 -21 08 10.01158
 2018-Aug-27 13:58  m  13 28 44.621043 -21 08 10.07188
 2018-Aug-27 13:59  m  13 28 44.634746 -21 08 10.13218
 2018-Aug-27 14:00  m  13 28 44.648449 -21 08 10.19249
 2018-Aug-27 14:01  m  13 28 44.662152 -21 08 10.25280
 2018-Aug-27 14:02  m  13 28 44.675855 -21 08 10.31312
 2018-Aug-27 14:03  m  13 28 44.689558 -21 08 10.37344
 2018-Aug-27 14:04  m  13 28 44.703261 -21 08 10.43377
 2018-Aug-27 14:05  m  13 28 44.716963 -21 08 10.49411
 2018-Aug-27 14:06  m  13 28 44.730666 -21 08 10.55445
 2018-Aug-27 14:07  m  13 28 44.744369 -21 08 10.61479
 2018-Aug-27 14:08  m  13 28 44.758072 -21 08 10.67514
 2018-Aug-27 14:09  m  13 28 44.771774 -21 08 10.73550
 2018-Aug-27 14:10  m  13 28 44.785477 -21 08 10.79586
 2018-Aug-27 14:11  m  13 28 44.799179 -21 08 10.85623
 2018-Aug-27 14:12  m  13 28 44.812882 -21 08 10.91661
 2018-Aug-27 14:13  m  13 28 44.826584 -21 08 10.97699
 2018-Aug-27 14:14  m  13 28 44.840286 -21 08 11.03737
 2018-Aug-27 14:15  m  13 28 44.853988 -21 08 11.09776
 2018-Aug-27 14:16  m  13 28 44.867690 -21 08 11.15816
 2018-Aug-27 14:17  m  13 28 44.881392 -21 08 11.21856
 2018-Aug-27 14:18  m  13 28 44.895094 -21 08 11.27897
 2018-Aug-27 14:19  m  13 28 44.908796 -21 08 11.33938
 2018-Aug-27 14:20  m  13 28 44.922497 -21 08 11.39980
 2018-Aug-27 14:21  m  13 28 44.936199 -21 08 11.46023
 2018-Aug-27 14:22  m  13 28 44.949900 -21 08 11.52065
 2018-Aug-27 14:23  m  13 28 44.963601 -21 08 11.58109
 2018-Aug-27 14:24  m  13 28 44.977302 -21 08 11.64153
 2018-Aug-27 14:25  m  13 28 44.991003 -21 08 11.70198
 2018-Aug-27 14:26  m  13 28 45.004704 -21 08 11.76243
 2018-Aug-27 14:27  m  13 28 45.018405 -21 08 11.82289
 2018-Aug-27 14:28  m  13 28 45.032106 -21 08 11.88335
 2018-Aug-27 14:29  m  13 28 45.045806 -21 08 11.94382
 2018-Aug-27 14:30  m  13 28 45.059506 -21 08 12.00429
 2018-Aug-27 14:31  m  13 28 45.073206 -21 08 12.06477
 2018-Aug-27 14:32  m  13 28 45.086906 -21 08 12.12526
 2018-Aug-27 14:33  m  13 28 45.100606 -21 08 12.18575
 2018-Aug-27 14:34  m  13 28 45.114306 -21 08 12.24624
 2018-Aug-27 14:35  m  13 28 45.128005 -21 08 12.30674
 2018-Aug-27 14:36  m  13 28 45.141705 -21 08 12.36725
 2018-Aug-27 14:37  m  13 28 45.155404 -21 08 12.42776
 2018-Aug-27 14:38  m  13 28 45.169103 -21 08 12.48828
 2018-Aug-27 14:39  m  13 28 45.182801 -21 08 12.54880
 2018-Aug-27 14:40  m  13 28 45.196500 -21 08 12.60933
 2018-Aug-27 14:41  m  13 28 45.210198 -21 08 12.66986
 2018-Aug-27 14:42  m  13 28 45.223896 -21 08 12.73040
 2018-Aug-27 14:43  m  13 28 45.237594 -21 08 12.79095
 2018-Aug-27 14:44  m  13 28 45.251292 -21 08 12.85150
 2018-Aug-27 14:45  m  13 28 45.264990 -21 08 12.91205
 2018-Aug-27 14:46  m  13 28 45.278687 -21 08 12.97262
 2018-Aug-27 14:47  m  13 28 45.292384 -21 08 13.03318
 2018-Aug-27 14:48  m  13 28 45.306081 -21 08 13.09375
 2018-Aug-27 14:49  m  13 28 45.319778 -21 08 13.15433
 2018-Aug-27 14:50 Am  13 28 45.333474 -21 08 13.21491
 2018-Aug-27 14:51 Am  13 28 45.347170 -21 08 13.27550
 2018-Aug-27 14:52 Am  13 28 45.360866 -21 08 13.33609
 2018-Aug-27 14:53 Am  13 28 45.374562 -21 08 13.39669
 2018-Aug-27 14:54 Am  13 28 45.388257 -21 08 13.45730
 2018-Aug-27 14:55 Am  13 28 45.401952 -21 08 13.51791
 2018-Aug-27 14:56 Am  13 28 45.415647 -21 08 13.57852
 2018-Aug-27 14:57 Am  13 28 45.429342 -21 08 13.63914
 2018-Aug-27 14:58 Am  13 28 45.443036 -21 08 13.69976
 2018-Aug-27 14:59 Am  13 28 45.456731 -21 08 13.76040
 2018-Aug-27 15:00 Am  13 28 45.470425 -21 08 13.82103
 2018-Aug-27 15:01 Am  13 28 45.484118 -21 08 13.88167
 2018-Aug-27 15:02 Am  13 28 45.497811 -21 08 13.94232
 2018-Aug-27 15:03 Am  13 28 45.511505 -21 08 14.00297
 2018-Aug-27 15:04 Am  13 28 45.525197 -21 08 14.06363
 2018-Aug-27 15:05 Am  13 28 45.538890 -21 08 14.12429
